BEESAT-4                
1 41619U 16040W   23005.56797205  .00029159  00000+0  76371-3 0  9995
2 41619  97.1894  56.3533 0009044 106.5694 253.6545 15.38619270351713
CAS-2T & KS-1Q          
1 41847U 16066G   23005.43690197  .00000968  00000+0  15521-3 0  9991
2 41847  98.5274  74.6739 0361626 325.5476  32.2736 14.38996542323397
NAYIF-1 (EO-88)         
1 42017U 17008BX  23005.14729388  .00043891  00000+0  96619-3 0  9990
2 42017  97.2443  74.1134 0002811 232.4367 127.6626 15.43830366328084
ZHUHAI-1 02 (CAS-4B)    
1 42759U 17034B   23006.23615750  .00007845  00000+0  43817-3 0  9991
2 42759  43.0178 293.5952 0008864 135.6650  17.6054 15.13832171307060
ZHUHAI-1 01 (CAS-4A)    
1 42761U 17034D   23006.18604226  .00006974  00000+0  38988-3 0  9999
2 42761  43.0187 292.5103 0009369 140.9750 328.7068 15.13924693307063
MAX VALIER SAT          
1 42778U 17036P   23005.71185032  .00017389  00000+0  57790-3 0  9990
2 42778  97.1810  45.0611 0008965 335.5187  24.5628 15.31212413307801
RADFXSAT (FOX-1B)       
1 43017U 17073E   23005.43016332  .00006980  00000+0  51421-3 0  9993
2 43017  97.6526 256.2872 0241115 245.3681 112.2247 14.83239235277035
FOX-1D (AO-92)          
1 43137U 18004AC  23005.44560603  .00018980  00000+0  56900-3 0  9997
2 43137  97.3504  84.1751 0007360  15.0144 345.1316 15.34505470277266
DIWATA-2B               
1 43678U 18084H   23005.87116259  .00001380  00000+0  13974-3 0  9996
2 43678  97.9955 146.9270 0009421 345.4919  14.6093 14.92609486228042
ES'HAIL 2               
1 43700U 18090A   23005.74995992  .00000157  00000+0  00000+0 0  9997
2 43700   0.0159  47.5820 0001944 273.9411  79.3140  1.00273529 15304
FOX-1CLIFF (AO-95)      
1 43770U 18099N   23006.06193956  .00005787  00000+0  49885-3 0  9991
2 43770  97.5981  72.0139 0012392 322.0434  37.9913 14.97630689223326
ITASAT 1                
1 43786U 18099AE  23005.64385566  .00003903  00000+0  33829-3 0  9990
2 43786  97.5999  72.6212 0013492 312.4077  47.6003 14.97604247223305
JY1SAT (JO-97)          
1 43803U 18099AX  23005.17853620  .00005044  00000+0  42717-3 0  9993
2 43803  97.5959  72.0116 0013187 311.7395  48.2699 14.98370410223260
UWE-4                   
1 43880U 18111E   23005.69492301  .00006350  00000+0  51976-3 0  9993
2 43880  97.6618 273.4764 0012783  16.3290 343.8343 14.99596895219990
NEXUS (FO-99)           
1 43937U 19003F   23006.32049759  .00027899  00000+0  76474-3 0  9994
2 43937  97.1093  37.2865 0018649 140.8041 219.4559 15.37081849221066
PSAT2 (NO-104)          
1 44354U 19036R   23005.78738218  .00253744  13159-4  86443-3 0  9999
2 44354  28.5150 185.0415 0108869 140.3418 220.5213 15.79380389196183
JAISAT-1                
1 44419U 19038F   23005.40073682  .00014330  00000+0  63726-3 0  9990
2 44419  97.6596 342.9595 0018515 146.3009 213.9408 15.21457672193714
DUCHIFAT-3              
1 44854U 19089C   23006.24750480  .00006761  00000+0  49996-3 0  9992
2 44854  36.9659 336.7125 0005686  67.1280  71.3900 15.02865770168434
CAS-6 (TIANQIN 1)       
1 44881U 19093C   23005.40902251  .00000939  00000+0  12489-3 0  9997
2 44881  97.8775  86.5796 0013569 247.2041 112.7750 14.82011638164687
RS-44 & BREEZE-KM R/B   
1 44909U 19096E   23005.52602807  .00000010  00000+0 -52324-6 0  9994
2 44909  82.5217  96.0364 0217168 207.0164 151.9501 12.79717418141359
ORBITAL FACTORY 2 (OF-2)
1 45113U 19071C   23005.74191015  .00092699  00000+0  98382-3 0  9997
2 45113  51.6320 134.0147 0007866 217.2166 142.8284 15.63273929164798
HUSKYSAT-1 (HO-107)     
1 45119U 19071J   23004.90597099  .00076464  00000+0  95523-3 0  9998
2 45119  51.6326 141.1480 0008223 204.0924 155.9685 15.59120630164619
BY70-2                  
1 45857U 20042B   23005.35074625  .00012533  00000+0  15430-2 0  9997
2 45857  97.9414  85.5139 0010057 176.0339 184.0960 14.83061117135344
SALSAT                  
1 46495U 20068K   23005.81674317  .00003701  00000+0  26022-3 0  9996
2 46495  97.7523 312.5427 0015021 316.2102  43.7932 15.05644139124622
BY70-3                  
1 46839U 20079N   23006.23054253  .00069574  00000+0  98390-3 0  9995
2 46839  97.1769  81.9971 0003418 323.9783 121.0781 15.56294316121609
RADFXSAT-2 (AO-109)     
1 47311U 21002C   23006.24334853  .00020687  00000+0  70629-3 0  9993
2 47311  60.6850 316.7209 0038949  94.0778 266.4765 15.29654074109446
UVSQ-SAT                
1 47438U 21006AB  23005.59408570  .00010769  00000+0  52282-3 0  9997
2 47438  97.4118  65.4945 0009790 296.0294  63.9932 15.18605882107923
DIY-1 (ARDUIQUBE)       
1 47963U 21022AH  23005.70216428  .00036857  00000+0  15732-2 0  9994
2 47963  97.5177 270.5779 0014565 143.2072 217.0166 15.22705935 97619
XW-3 (CAS-9)            
1 50466U 21131B   23005.78525105  .00000398  00000+0  14443-3 0  9990
2 50466  98.5662  87.7944 0003593 260.2781  99.8001 14.38612040 54009
TEVEL-3                 
1 50988U 22002E   23005.88767853  .00012762  00000+0  63166-3 0  9990
2 50988  97.4592  74.6307 0010270  83.0806   5.2801 15.17883640 54086
TEVEL-8                 
1 50989U 22002F   23006.03755882  .00012907  00000+0  63970-3 0  9992
2 50989  97.4604  74.8191 0010437  81.4751  38.1808 15.17831634 54101
TEVEL-5                 
1 50998U 22002Q   23006.22588119  .00013262  00000+0  64511-3 0  9997
2 50998  97.4581  75.1920 0011782  77.9750 317.9329 15.18465418 54157
TEVEL-6                 
1 50999U 22002R   23005.90471073  .00013278  00000+0  64591-3 0  9997
2 50999  97.4579  74.8713 0011768  78.9863   8.1229 15.18464186 54105
TEVEL-1                 
1 51013U 22002AF  23006.14656816  .00012883  00000+0  63802-3 0  9997
2 51013  97.4584  74.8496 0010098  80.4029 309.7275 15.17860916 54127
TEVEL-7                 
1 51062U 22002CG  23006.15487251  .00012962  00000+0  64236-3 0  9997
2 51062  97.4604  74.9146 0010323  80.2850 308.8147 15.17836091 54123
TEVEL-4                 
1 51063U 22002CH  23006.23127578  .00012891  00000+0  63920-3 0  9990
2 51063  97.4594  74.9807 0010293  81.5517 353.0403 15.17816697 54134
TEVEL-2                 
1 51069U 22002CP  23005.96219042  .00012870  00000+0  63698-3 0  9992
2 51069  97.4581  74.6826 0010260  81.8291  43.4182 15.17883031 54095
GREENCUBE               
1 53106U 22080B   22354.08419093 -.00000003  00000+0  00000+0 0  9999
2 53106  70.1702  21.9397 0008914 226.9685 182.2049  6.42557326 10248
YUZGU 9 (RS3S)          
1 53308U 98067TT  23006.23157954  .00351434  00000+0  16315-2 0  9993
2 53308  51.6326  37.4069 0006240  17.3937 342.7278 15.81868181 26395
YUZGU 7 (RS1S)          
1 53309U 98067TU  23006.25207070  .00389455  00000+0  16649-2 0  9995
2 53309  51.6308  36.7784 0006619  18.9896 341.1352 15.83528901 26350
YUZGU 11 (RS5S)         
1 53310U 98067TV  23006.22824593  .00367458  00000+0  16788-2 0  9992
2 53310  51.6336  37.3850 0006066  15.1038 345.0144 15.82172089 26372
YUZGU 12 (RS6S)         
1 53311U 98067TW  23006.26925405  .00453028  00000+0  17591-2 0  9993
2 53311  51.6288  36.1325 0006307  25.5574 334.5741 15.85390817 26416
TSIOLKOVSKY-RYAZAN 1 (*)
1 53312U 98067TX  23006.26361098  .00375822  00000+0  16618-2 0  9990
2 53312  51.6302  36.8632 0006757  17.0458 343.0771 15.82844813 26345
TSIOLKOVSKY-RYAZAN 2 (*)
1 53313U 98067TY  23006.25632713  .00388979  00000+0  17034-2 0  9995
2 53313  51.6321  36.8200 0006686  20.2967 339.8300 15.83018246 26390
YUZGU 10 (RS4S)         
1 53321U 98067TZ  23006.27640657  .00360311  00000+0  16275-2 0  9998
2 53321  51.6335  36.9542 0006201  16.8183 343.3024 15.82433906 26394
RS29S (SXC3-2110 CYCLO*)
1 53373U 22096D   23006.08304285  .00018494  00000+0  67110-3 0  9994
2 53373  97.4277 271.6886 0003082  49.1045  69.3920 15.28372189 22844
RS32S (SXC3-212 MONITO*)
1 53374U 22096E   23006.07427686  .00016763  00000+0  60957-3 0  9994
2 53374  97.4289 271.6907 0002669  46.6646  67.7492 15.28325228 22849
RS34S (SXC3-218 KUZBAS*)
1 53375U 22096F   23005.90284740  .00014766  00000+0  54612-3 0  9990
2 53375  97.4275 271.4739 0002835  46.1129  83.9718 15.27795501 22814
RS23S (SXC3-21 UTMN)    
1 53376U 22096G   23005.81668501  .00015403  00000+0  56732-3 0  9996
2 53376  97.4280 271.4008 0002743  47.5176 357.7945 15.27922002 22806
RS28S (SXC3-214 MIET-A*)
1 53377U 22096H   23006.09288255  .00014606  00000+0  53996-3 0  9995
2 53377  97.4284 271.6762 0002744  45.6491  70.2778 15.27812086 22845
RS26S (KAI-1)           
1 53378U 22096J   23006.10180596  .00012641  00000+0  47205-3 0  9990
2 53378  97.4281 271.6582 0002449  38.7894  69.3362 15.27513923 22841
RS19S (SXC3-219 ISOI)   
1 53381U 22096M   23006.11034904  .00014740  00000+0  53614-3 0  9999
2 53381  97.4280 271.7994 0002419 301.4079 168.7886 15.28345510 22856
RS21S (CUBESX-HSE-2)    
1 53383U 22096P   23006.24543911  .00015258  00000+0  55345-3 0  9996
2 53383  97.4287 271.9480 0002480 299.1777 218.9950 15.28428874 22870
RS30S (SXC3-217 SIREN)  
1 53384U 22096Q   23005.92087557  .00013956  00000+0  51065-3 0  9998
2 53384  97.4281 271.6051 0002675 298.5749 192.5423 15.28162970 22823
RS20S (GEOSCAN-EDELVEIS)
1 53385U 22096R   23006.25358059  .00019198  00000+0  67494-3 0  9991
2 53385  97.4277 272.0663 0003028 301.2850 175.2732 15.29403146 22916
RS33S (SXC3-215 VIZARD) 
1 53386U 22096S   23006.06825858  .00022463  00000+0  76540-3 0  9998
2 53386  97.4270 272.0038 0003582 295.1732 180.5081 15.30387374 22889
CAS-5A (FO-118)         
1 54684U 22167C   23005.92554337  .00009672  00000+0  61116-3 0  9994
2 54684  97.5393 145.4409 0014957 169.2089 307.0498 15.09161673  4164
CAS-10                  
1 54816U 21035C   23005.59716024  .00140121  00000+0  14175-2 0  9997
2 54816  41.4783  66.4825 0005408 320.1883  39.8565 15.64038504  2774
